{"fetched_at":"2026-06-05T03:33:35Z","count":945,"tles":[{"name":"KINEIS-4B","line1":"1 63304U 25056E   26155.16658440  .00001806  00000+0  29326-3 0  9996","line2":"2 63304  97.9109 279.6118 0005015 354.5038   5.6114 14.72313665 65204","category":"Other"},{"name":"BRO-11","line1":"1 58264U 23174J   26155.14368628  .00005990  00000+0  22705-3 0  9990","line2":"2 58264  97.3904 232.1086 0008836 249.8588 110.1701 15.27227647142764","category":"Other"},{"name":"KINEIS-5A","line1":"1 62084U 24219D   26154.96329966  .00000304  00000+0  56019-4 0  9997","line2":"2 62084  97.8938 314.6143 0004292  10.9266 349.2034 14.72044320 81820","category":"Other"},{"name":"SL-14 R/B","line1":"1 17567U 87024B   26155.08875156  .00000466  00000+0  50204-4 0  9996","line2":"2 17567  82.5286  11.5634 0017608 339.3189  20.7312 14.86204472100966","category":"Other"},{"name":"GLOBAL-5","line1":"1 55983U 23041C   26152.41828746  .00015621  00000+0  40335-3 0  9998","line2":"2 55983  42.0016 293.3940 0007420 249.0243 110.9803 15.38827021179503","category":"Other"},{"name":"DUBAISAT-1","line1":"1 35682U 09041B   26154.31908119  .00001061  00000+0  16474-3 0  9990","line2":"2 35682  98.0035 287.7304 0011671 113.0569 247.1872 14.75100900903058","category":"Other"},{"name":"SL-16 R/B","line1":"1 19650U 88102B   26154.65536252  .00000152  00000+0  10081-3 0  9992","line2":"2 19650  71.0002 330.6123 0016191 243.3704 116.5761 14.16165836939067","category":"Other"},{"name":"HUNITY","line1":"1 66670U 25276E   26155.01749308  .00029955  00000+0  11525-2 0  9993","line2":"2 66670  97.4074 229.2946 0007149  68.6785 291.5216 15.26314917 28479","category":"Other"},{"name":"COSMOS 2489 (RODNIK-S 8)","line1":"1 39484U 13076B   26155.29439972 -.00000028  00000+0 -27150-3 0  9998","line2":"2 39484  82.4864 178.1022 0022496 122.0426 238.2843 12.42879242564346","category":"Other"},{"name":"2024-018A","line1":"1 58849U 24018A   26155.25817454  .00002509  00000+0  27895-3 0  9993","line2":"2 58849  58.6865 275.1291 0437434  90.5717 274.5435 14.39468628123316","category":"Other"},{"name":"ORBCOMM FM109","line1":"1 40086U 14040A   26155.22258677  .00000521  00000+0  14649-3 0  9999","line2":"2 40086  47.0015 152.7819 0001440 208.1140 151.9668 14.58828441632456","category":"Other"},{"name":"ARVAKER-1","line1":"1 63252U 25052AU  26154.62482787  .00002360  00000+0  22375-3 0  9996","line2":"2 63252  97.6884  46.1020 0000966 257.6025 102.5088 14.94505324 66589","category":"Other"},{"name":"PRSS-1","line1":"1 43530U 18056B   26155.29380068  .00001411  00000+0  18447-3 0  9993","line2":"2 43530  97.7822 223.5200 0001790  79.8707 280.2708 14.81969651426527","category":"Other"},{"name":"2025-292A","line1":"1 66993U 25292A   26154.16172971  .00005632  00000+0  38757-3 0  9993","line2":"2 66993  97.6310 229.9994 0015878  50.6764 309.5868 15.06191629 26335","category":"Other"},{"name":"ICEYE-X7","line1":"1 46496U 20068L   26155.26917194  .00013452  00000+0  44815-3 0  9992","line2":"2 46496  97.7496 121.2130 0008288  28.2703 331.8986 15.31213453312812","category":"Other"},{"name":"CENTISPACE-1 S9","line1":"1 62578U 25007D   26155.21796170 -.00000056  00000+0  80510-4 0  9993","line2":"2 62578  54.9834 337.6495 0013030  56.6488 303.5714 13.80604464 72923","category":"Other"},{"name":"OTTER PUP 2","line1":"1 64537U 25135K   26153.25469915  .00026000  00000+0  11126-2 0  9999","line2":"2 64537  97.4434 268.8311 0002746 181.8553 178.2674 15.22787316 52607","category":"Other"},{"name":"MISRSAT-2","line1":"1 58497U 23187B   26155.24062331  .00001629  00000+0  20583-3 0  9992","line2":"2 58497  97.9268 237.2718 0010971 181.4080 178.7105 14.83211273135129","category":"Other"},{"name":"HORS 3 (RS81S)","line1":"1 61753U 24199U   26155.27970713  .00038704  00000+0  59687-3 0  9991","line2":"2 61753  97.2991  30.8710 0005010 348.9816  11.1327 15.54050610135556","category":"Other"},{"name":"IOD-2","line1":"1 64538U 25135L   26154.88717242  .00004482  00000+0  20966-3 0  9992","line2":"2 64538  97.4692 269.6161 0003879 205.7196 154.3846 15.20262646 52803","category":"Other"},{"name":"HORS 4 (RS82S)","line1":"1 61754U 24199V   26155.27795850  .00053577  00000+0  70111-3 0  9999","line2":"2 61754  97.2937  31.9904 0003789 341.4344  18.6773 15.58446152135639","category":"Other"},{"name":"COSMOS 2581","line1":"1 62902U 25026A   26154.76868703  .00001901  00000+0  17167-3 0  9992","line2":"2 62902  81.9957  88.1888 0011626  98.6546 261.5991 14.94966367 72215","category":"Other"},{"name":"HORS 1","line1":"1 57188U 23091Y   26155.19772629  .00010655  00000+0  41046-3 0  9990","line2":"2 57188  97.5068 218.7089 0010195 133.0301 227.1793 15.26483373162336","category":"Other"},{"name":"AJISAI (EGS)","line1":"1 16908U 86061A   26155.29013156 -.00000091  00000+0  44610-4 0  9990","line2":"2 16908  50.0065 187.0547 0011292 147.9081 298.3818 12.44516730478785","category":"Other"},{"name":"2024-092B","line1":"1 59774U 24092B   26155.27370079  .00011099  00000+0  40286-3 0  9995","line2":"2 59774  97.6482 284.0335 0008102 220.6393 139.4242 15.28467343113565","category":"Other"},{"name":"SWARM B","line1":"1 39451U 13067A   26155.23651234  .00003663  00000+0  13102-3 0  9991","line2":"2 39451  87.7438 346.2521 0003408  93.7053 266.4586 15.28469490681264","category":"Other"},{"name":"RAY 1.0","line1":"1 62627U 25009U   26155.25549776  .00003640  00000+0  16886-3 0  9997","line2":"2 62627  97.3988 233.8156 0007734 330.8748  29.2055 15.20656463 76713","category":"Other"},{"name":"SITRO-AIS 15","line1":"1 61738U 24199D   26155.24571319  .00003852  00000+0  33441-3 0  9996","line2":"2 61738  97.3248 355.4195 0008412 105.0085 255.2070 14.97550068129880","category":"Other"},{"name":"UOSAT 2 (UO-11)","line1":"1 14781U 84021B   26155.13278985  .00001434  00000+0  15166-3 0  9991","line2":"2 14781  97.8051 120.8543 0006503 218.7082 141.3671 14.90749915255181","category":"Other"},{"name":"ICEYE-X9","line1":"1 47506U 21006CX  23362.46418627  .00027778  00000+0  10076-2 0  9991","line2":"2 47506  97.3622  54.3082 0008413 126.8860 233.3152 15.28271202162044","category":"Other"},{"name":"GLOBAL-31","line1":"1 63027U 25033B   26153.82197079  .00015764  00000+0  40742-3 0  9993","line2":"2 63027  58.9995  14.1946 0014788  59.7245 300.5292 15.39250867 72118","category":"Other"},{"name":"GEOSCAN 1 (RS92S1)","line1":"1 64880U 25155E   26155.23970553  .00012326  00000+0  42044-3 0  9997","line2":"2 64880  97.4552 123.8816 0006509 208.2464 151.8425 15.30473358 78791","category":"Other"},{"name":"JILIN-1 GAOFEN 03D10","line1":"1 51840U 22019S   26120.88889617  .06807261  24969-5  74929-3 0  9997","line2":"2 51840  97.3422 218.7419 0012479 265.4780  94.5092 16.37064854232790","category":"Other"},{"name":"EOS-6 (OCEANSAT-3)","line1":"1 54361U 22158A   26155.30099720  .00000377  00000+0  11575-3 0  9994","line2":"2 54361  98.3531 253.6666 0001805  63.3879 296.7499 14.46992667185974","category":"Other"},{"name":"QAEM 100 R/B","line1":"1 58818U 24015B   24050.31750225  .00000584  00000+0  20458-3 0  9996","line2":"2 58818  64.5040  25.2965 0012806 292.7438  67.2294 14.43323881  4340","category":"Other"},{"name":"PEGASUS R/B","line1":"1 22491U 93009C   26105.21713034  .00000593  00000+0  81954-4 0  9991","line2":"2 22491  24.9765 126.2551 0044227 147.4301 212.8949 14.57885680760431","category":"Other"},{"name":"COSMOS 2463","line1":"1 36519U 10017A   26154.32929439  .00000060  00000+0  49616-4 0  9997","line2":"2 36519  82.9608 259.8868 0036592 166.4676 248.5399 13.71664709806037","category":"Other"},{"name":"SPACEMOBILE-001","line1":"1 61047U 24163C   26153.80796930  .00003529  00000+0  17261-3 0  9991","line2":"2 61047  52.9680  15.2322 0009236  78.6040 281.5991 15.20793483 95573","category":"Other"},{"name":"BALKAN-1","line1":"1 62611U 25009C   26154.16850907  .00008233  00000+0  33416-3 0  9991","line2":"2 62611  97.3921 233.5807 0007559  36.9702 323.2055 15.24832101 76628","category":"Other"},{"name":"COSMOS 2507 (RODNIK-S *)","line1":"1 40920U 15050A   26155.27262623  .00000074  00000+0  46459-3 0  9996","line2":"2 40920  82.4924  87.7104 0010724  23.5271 336.6297 12.42926361485253","category":"Other"},{"name":"GONETS-M 15","line1":"1 44906U 19096B   26155.27837042  .00000062  00000+0  37704-3 0  9991","line2":"2 44906  82.5253  93.1027 0014368 200.5035 159.5470 12.42870859292043","category":"Other"},{"name":"BLACKJACK ACES-3","line1":"1 56950U 23084U   26154.59480105  .00006511  00000+0  32012-3 0  9995","line2":"2 56950  97.6202 289.6853 0003593  73.1821 286.9806 15.18373959165109","category":"Other"},{"name":"ICEYE-X54","line1":"1 64570U 25135AU  26155.23628513  .00002881  00000+0  27241-3 0  9994","line2":"2 64570  97.7711 269.7875 0002321  29.9506 330.1847 14.94463189 51965","category":"Other"},{"name":"LUNA-2","line1":"1 68470U 26067BG  26153.81995868  .00006412  00000+0  32521-3 0  9995","line2":"2 68470  97.4476 112.3315 0008939 113.1113 247.1063 15.17248631  9752","category":"Other"},{"name":"UHETSAT","line1":"1 58466U 23185E   26155.24963237  .00007746  00000+0  26026-3 0  9995","line2":"2 58466  97.3483 222.8355 0012761   5.0583 355.0785 15.31037110139312","category":"Other"},{"name":"COSMOS 2414","line1":"1 28521U 05002A   26155.12788631  .00000090  00000+0  62365-4 0  9994","line2":"2 28521  82.9507  53.5248 0040393   8.7598 351.4261 13.87925462 82003","category":"Other"},{"name":"SITRO-AIS 45","line1":"1 61788U 24199BF  26155.25682003  .00054018  00000+0  74577-3 0  9990","line2":"2 61788  97.2906  30.7761 0005442 352.5272   7.5902 15.56998055132394","category":"Other"},{"name":"GONETS-M 23","line1":"1 54150U 22139A   26155.30275990  .00000019  00000+0  65086-4 0  9994","line2":"2 54150  82.5075 356.3032 0020549 249.2126 110.6753 12.42890298164045","category":"Other"},{"name":"MATS","line1":"1 54227U 22147A   26154.55492491  .00004549  00000+0  32226-3 0  9992","line2":"2 54227  97.6814 156.2114 0011188 242.9221 117.0864 15.05264744195716","category":"Other"}]}